STARLINK-30211          
1 57304U 23096Q   25162.25002315  .00423164  00000+0  34749-2 0  9991
2 57304  42.9876 223.5239 0023927  46.0418 125.3046 15.68039636106093
STARLINK-30177          
1 57305U 23096R   25161.57143075  .00022745  00000+0  13040-2 0  9996
2 57305  42.9991 257.5475 0011501 356.0833   3.9922 15.12124379105834
STARLINK-30200          
1 57306U 23096S   25161.53953208  .00022824  00000+0  12606-2 0  9995
2 57306  42.9974 256.4640 0011583 358.9730   1.1091 15.13457599105847
STARLINK-30209          
1 57307U 23096T   25161.57401070  .00024474  00000+0  14116-2 0  9996
2 57307  42.9968 257.5549 0010726 359.5199   0.5635 15.11880606105838
STARLINK-30194          
1 57308U 23096U   25161.93696717  .00097374  00000+0  22768-2 0  9992
2 57308  42.9924 237.1829 0020031  31.4679 328.7371 15.40917726106092
STARLINK-30163          
1 57309U 23096V   25161.55926010  .00032446  00000+0  14447-2 0  9997
2 57309  42.9958 248.1308 0017433   8.8101 351.3051 15.20756525105906
STARLINK-30184          
1 57310U 23096W   25161.89013617  .00000005  00000+0  15437-4 0  9994
2 57310  43.0023 234.0168 0001444 273.0185  87.0492 15.02531196105945
STARLINK-30175          
1 57311U 23096X   25161.96528635  .00041649  00000+0  23998-2 0  9992
2 57311  43.0014 255.3429 0010670   4.9369 355.1580 15.11695872105802
STARLINK-6290           
1 57328U 23099A   25161.66864721 -.00000073  00000+0  96981-5 0  9991
2 57328  43.0047 287.3961 0001376 264.3181  95.7504 15.02533512106108
STARLINK-6138           
1 57329U 23099B   25161.65866068 -.00000400  00000+0 -14518-4 0  9997
2 57329  43.0036 287.3219 0001333 271.4591  88.6098 15.02529474105199
STARLINK-6212           
1 57330U 23099C   25161.39940552 -.00001193  00000+0 -73218-4 0  9993
2 57330  43.0048 288.8165 0001429 264.3536  95.7143 15.02546016105894
STARLINK-6234           
1 57331U 23099D   25161.66420774 -.00000521  00000+0 -23496-4 0  9990
2 57331  43.0048 287.3614 0001382 276.3545  83.7140 15.02534383105190
STARLINK-5831           
1 57332U 23099E   25161.79494355  .00000165  00000+0  27325-4 0  9998
2 57332  43.0043 286.6222 0001314 271.4425  88.6267 15.02537206105215
STARLINK-5585           
1 57333U 23099F   25161.66087939 -.00000141  00000+0  46758-5 0  9998
2 57333  43.0052 287.3386 0001444 273.6561  86.4116 15.02531843105191
STARLINK-5589           
1 57334U 23099G   25161.78828485  .00000367  00000+0  42251-4 0  9993
2 57334  43.0045 286.5742 0001339 272.6547  87.4142 15.02533028105217
STARLINK-6316           
1 57335U 23099H   25161.64423011 -.00000125  00000+0  58271-5 0  9998
2 57335  43.0046 287.2174 0001420 268.1865  91.8815 15.02532095105196
STARLINK-6320           
1 57336U 23099J   25161.68073320  .00000409  00000+0  45325-4 0  9996
2 57336  43.0040 286.6131 0001181 266.2330  93.8378 15.02536360105204
STARLINK-6322           
1 57337U 23099K   25161.65199655  .00000255  00000+0  33963-4 0  9998
2 57337  43.0048 287.2683 0001586 268.7555  91.3106 15.02533175105198
STARLINK-6374           
1 57338U 23099L   25161.71403707  .00000274  00000+0  35365-4 0  9991
2 57338  43.0045 286.8757 0001453 268.3626  91.7050 15.02532128105202
STARLINK-6332           
1 57339U 23099M   25161.65421653  .00000780  00000+0  72815-4 0  9998
2 57339  43.0037 287.2869 0001351 265.7395  94.3293 15.02535617105196
STARLINK-6321           
1 57340U 23099N   25161.70182789  .00000075  00000+0  20643-4 0  9999
2 57340  43.0029 286.7846 0001184 265.1808  94.8899 15.02529351105202
STARLINK-6377           
1 57341U 23099P   25161.70737970 -.00000264  00000+0 -44483-5 0  9999
2 57341  43.0042 286.8256 0001324 275.5927  84.4765 15.02529232105202
STARLINK-6375           
1 57342U 23099Q   25161.61869266 -.00002231  00000+0 -15009-3 0  9990
2 57342  43.0043 287.0200 0001680 277.4338  82.6313 15.02545524105197
STARLINK-6379           
1 57343U 23099R   25161.83700457 -.00001036  00000+0 -61634-4 0  9999
2 57343  43.0041 286.0747 0000887 263.2286  96.8455 15.02532959105220
STARLINK-6380           
1 57344U 23099S   25161.62868759 -.00000288  00000+0 -62657-5 0  9992
2 57344  43.0037 287.0906 0001479 269.3963  90.6709 15.02533820105199
STARLINK-6373           
1 57345U 23099T   25161.69849882 -.00000184  00000+0  14256-5 0  9992
2 57345  43.0037 286.7535 0001081 249.4289 110.6437 15.02534160105204
STARLINK-6359           
1 57346U 23099U   25161.74499813 -.00000490  00000+0 -21237-4 0  9991
2 57346  43.0038 286.2448 0001188 268.1479  91.9227 15.02530765105217
STARLINK-6378           
1 57347U 23099V   25161.82368867 -.00000452  00000+0 -18382-4 0  9990
2 57347  43.0033 285.9758 0001152 271.7984  88.2726 15.02529942105224
STARLINK-6372           
1 57348U 23099W   25161.73944662  .00000035  00000+0  17637-4 0  9991
2 57348  43.0050 286.2024 0001372 268.8588  91.2098 15.02533924105215
STARLINK-6376           
1 57349U 23099X   25161.74166605  .00000660  00000+0  63908-4 0  9992
2 57349  43.0044 286.2237 0001338 277.6981  82.3709 15.02527296105936
STARLINK-6362           
1 57350U 23099Y   25161.81406491  .00000131  00000+0  24757-4 0  9994
2 57350  43.0040 273.7359 0001510 267.2691  92.7979 15.02533507105368
STARLINK-6331           
1 57351U 23099Z   25161.67185813 -.00000259  00000+0 -41019-5 0  9995
2 57351  43.0047 286.5564 0001547 266.7939  93.2726 15.02532267105206
STARLINK-6297           
1 57352U 23099AA  25161.34205882 -.00000141  00000+0  46128-5 0  9994
2 57352  43.0040 276.2168 0001413 267.9445  92.1235 15.02535402105299
STARLINK-6324           
1 57353U 23099AB  25161.40372519  .00000029  00000+0  17205-4 0  9991
2 57353  43.0046 287.9832 0001559 268.9292  91.1372 15.02534828105163
STARLINK-6293           
1 57354U 23099AC  25161.66557319 -.00000322  00000+0 -87760-5 0  9995
2 57354  43.0035 274.3384 0001153 258.5405 101.5308 15.02529597105347
STARLINK-6276           
1 57355U 23099AD  25161.67778038  .00000031  00000+0  17352-4 0  9994
2 57355  43.0041 274.4360 0001451 268.6964  91.3712 15.02532876105342
STARLINK-6355           
1 57356U 23099AE  25161.33206967 -.00000081  00000+0  90812-5 0  9994
2 57356  43.0036 276.1364 0001353 267.7789  92.2899 15.02535914105292
STARLINK-5600           
1 57357U 23099AF  25161.73869721 -.00000129  00000+0  55116-5 0  9993
2 57357  43.0075 274.0321 0002069 262.3354  97.7253 15.02534360105355
STARLINK-6299           
1 57358U 23099AG  25161.65891175 -.00000057  00000+0  10829-4 0  9994
2 57358  43.0041 274.2911 0001340 257.1546 102.9147 15.02532358106089
STARLINK-6347           
1 57359U 23099AH  25161.80851464  .00000521  00000+0  53653-4 0  9996
2 57359  43.0038 273.6952 0001556 273.3874  86.6790 15.02536045105366
STARLINK-6348           
1 57360U 23099AJ  25161.71873009 -.00000003  00000+0  14831-4 0  9998
2 57360  43.0053 273.8809 0001610 269.6286  90.4372 15.02532522105358
STARLINK-6340           
1 57361U 23099AK  25161.66113058 -.00000065  00000+0  10244-4 0  9996
2 57361  43.0034 274.3096 0001087 274.2747  85.7971 15.02533441105346
STARLINK-6343           
1 57362U 23099AL  25161.64893012 -.00000806  00000+0 -44565-4 0  9997
2 57362  43.0035 274.2127 0001418 280.3803  79.6879 15.02536750105346
STARLINK-6356           
1 57363U 23099AM  25161.38966825 -.00000154  00000+0  36500-5 0  9998
2 57363  43.0030 275.7084 0001747 260.2908  99.7737 15.02537548106048
STARLINK-6338           
1 57364U 23099AN  25161.78077402 -.00000964  00000+0 -56321-4 0  9999
2 57364  43.0038 273.4822 0001209 268.7923  91.2781 15.02528610105365
STARLINK-5007           
1 57365U 23099AP  25161.37190849  .00000389  00000+0  43874-4 0  9994
2 57365  43.0042 275.5703 0001613 272.3988  87.6670 15.02534739105302
STARLINK-6174           
1 57366U 23099AQ  25161.70763542 -.00000624  00000+0 -31120-4 0  9993
2 57366  43.0029 273.7960 0001172 268.7760  91.2948 15.02529013105353
STARLINK-6215           
1 57367U 23099AR  25161.96713471  .00000205  00000+0  30224-4 0  9995
2 57367  43.0032 259.2717 0001420 267.0388  93.0292 15.02534820106288
STARLINK-6218           
1 57368U 23099AS  25161.63560257 -.00000187  00000+0  11971-5 0  9991
2 57368  43.0050 274.1181 0001278 274.3597  85.7099 15.02533568105341
STARLINK-6168           
1 57369U 23099AT  25161.71096108  .00000073  00000+0  20495-4 0  9993
2 57369  43.0065 273.8188 0001715 276.6587  83.4060 15.02532694105354
STARLINK-5353           
1 57370U 23099AU  25161.62894213  .00000718  00000+0  68251-4 0  9996
2 57370  43.0034 274.0616 0001336 269.7014  90.3675 15.02533334105348
STARLINK-6032           
1 57371U 23099AV  25161.57578923 -.00000870  00000+0 -49322-4 0  9997
2 57371  43.0041 274.5224 0001268 265.5845  94.4853 15.02528973105332
STARLINK-5975           
1 57372U 23099AW  25161.68764624  .00001380  00000+0  11725-3 0  9995
2 57372  43.0042 273.6334 0001631 272.6612  87.4044 15.02532838105352
STARLINK-6370           
1 57373U 23099AX  25161.80962235  .00000386  00000+0  43625-4 0  9998
2 57373  43.0037 273.6858 0001344 266.3842  93.6846 15.02534780105362
STARLINK-6369           
1 57374U 23099AY  25161.97934557  .00000424  00000+0  46477-4 0  9994
2 57374  43.0035 259.3794 0001572 271.4410  88.6252 15.02536427106289
STARLINK-6363           
1 57375U 23099AZ  25161.76078804  .00000127  00000+0  24480-4 0  9996
2 57375  43.0043 273.3349 0001369 271.5185  88.5500 15.02534608105367
STARLINK-6367           
1 57376U 23099BA  25161.61784315 -.00000131  00000+0  54218-5 0  9991
2 57376  43.0069 273.9821 0002663 282.3378  77.7166 15.02532981105347
STARLINK-6358           
1 57377U 23099BB  25161.75523902  .00000400  00000+0  44698-4 0  9998
2 57377  43.0044 273.2911 0001589 274.4691  85.5970 15.02532396105362
STARLINK-6364           
1 57378U 23099BC  25161.57629860 -.00000784  00000+0 -42956-4 0  9991
2 57378  43.0027 248.5157 0001265 271.3236  88.7461 15.02534107106377
